{
 "type": "FeatureCollection",
 "crs_note": "EPSG:4326 (lng, lat)",
 "features": [
  {
   "type": "Feature",
   "geometry": {
    "type": "Point",
    "coordinates": [
     106.49,
     10.97
    ]
   },
   "properties": {
    "node_id": "NODE-001",
    "node_role": "segment_controller",
    "node_status": "online",
    "pole_id": null,
    "segment_ids": [
     "SEG-001"
    ],
    "feeder_ids": [
     "FDR-001"
    ],
    "supports_remote_control": false,
    "last_report_at": "2026-08-20T04:00:00Z"
   }
  },
  {
   "type": "Feature",
   "geometry": {
    "type": "Point",
    "coordinates": [
     106.492,
     10.966
    ]
   },
   "properties": {
    "node_id": "NODE-002",
    "node_role": "segment_controller",
    "node_status": "online",
    "pole_id": null,
    "segment_ids": [
     "SEG-002"
    ],
    "feeder_ids": [
     "FDR-002"
    ],
    "supports_remote_control": false,
    "last_report_at": "2026-08-20T06:00:00Z"
   }
  },
  {
   "type": "Feature",
   "geometry": {
    "type": "Point",
    "coordinates": [
     106.5,
     10.976
    ]
   },
   "properties": {
    "node_id": "NODE-003",
    "node_role": "segment_controller",
    "node_status": "offline",
    "pole_id": null,
    "segment_ids": [
     "SEG-003"
    ],
    "feeder_ids": [
     "FDR-003"
    ],
    "supports_remote_control": false,
    "last_report_at": "2026-08-20T05:00:00Z"
   }
  }
 ]
}